{
  "type": "FeatureCollection",
  "name": "P118 V0.2 demonstration archaeological sites",
  "features": [
    {
      "type": "Feature",
      "id": "demo-changbin-baxian",
      "properties": {
        "EntitySiteID": 1,
        "EntityID": 1,
        "SiteID": 1,
        "CultureSlug": "changbin-culture",
        "TitleZh": "長濱文化",
        "TitleEn": "Changbin Culture",
        "StartYear": -28050,
        "EndYear": -3050,
        "SummaryZh": "臺灣舊石器時代晚期的代表性文化。八仙洞與小馬洞穴等遺址出土礫石砍器、石片器、尖器及骨角器等遺物。",
        "CultureSourceCitation": "中央研究院「臺灣史前文化：八仙洞遺址」。",
        "CultureSourceURL": "https://twstudy.iis.sinica.edu.tw/preHistory/site_7.html",
        "DisplayColor": "#8B5E3C",
        "SiteSlug": "baxian-caves",
        "SiteNameZh": "八仙洞考古遺址",
        "SiteNameEn": "Baxian Caves Archaeological Site",
        "Longitude": 121.476676,
        "Latitude": 23.397167,
        "LocationNote": "臺東縣長濱鄉。圓點只表示遺址定位。",
        "SiteSourceCitation": "中央研究院「臺灣史前文化：八仙洞遺址」。",
        "SiteSourceURL": "https://twstudy.iis.sinica.edu.tw/preHistory/site_7.html",
        "EvidenceNote": "長濱文化的代表性與命名相關遺址。",
        "IsPrimary": true,
        "DataStatus": "demo"
      },
      "geometry": { "type": "Point", "coordinates": [121.476676, 23.397167] }
    },
    {
      "type": "Feature",
      "id": "demo-changbin-xiaoma",
      "properties": {
        "EntitySiteID": 2,
        "EntityID": 1,
        "SiteID": 2,
        "CultureSlug": "changbin-culture",
        "TitleZh": "長濱文化",
        "TitleEn": "Changbin Culture",
        "StartYear": -28050,
        "EndYear": -3050,
        "SummaryZh": "臺灣舊石器時代晚期的代表性文化。八仙洞與小馬洞穴等遺址出土礫石砍器、石片器、尖器及骨角器等遺物。",
        "CultureSourceCitation": "中央研究院「臺灣史前文化：八仙洞遺址」。",
        "CultureSourceURL": "https://twstudy.iis.sinica.edu.tw/preHistory/site_7.html",
        "DisplayColor": "#8B5E3C",
        "SiteSlug": "xiaoma-cave",
        "SiteNameZh": "小馬洞穴遺址",
        "SiteNameEn": "Xiaoma Cave Archaeological Site",
        "Longitude": 121.305,
        "Latitude": 22.975,
        "LocationNote": "臺東縣馬武窟溪口北側附近；展示座標仍待考古GIS資料校訂。",
        "SiteSourceCitation": "國家文化記憶庫「小馬海蝕洞（小馬Ⅲ）遺址」。",
        "SiteSourceURL": "https://tcmb.culture.tw/zh-tw/detail?id=263314&indexCode=Culture_Object",
        "EvidenceNote": "先陶文化層出土與長濱文化相關的石片器與砍器。",
        "IsPrimary": false,
        "DataStatus": "demo"
      },
      "geometry": { "type": "Point", "coordinates": [121.305, 22.975] }
    },
    {
      "type": "Feature",
      "id": "demo-niumatou",
      "properties": {
        "EntitySiteID": 3,
        "EntityID": 2,
        "SiteID": 3,
        "CultureSlug": "niumatou-culture",
        "TitleZh": "牛罵頭文化",
        "TitleEn": "Niumatou Culture",
        "StartYear": -2550,
        "EndYear": -1450,
        "SummaryZh": "臺灣中部新石器時代中期的代表性文化，以紅、褐色繩紋陶器為主要特徵。",
        "CultureSourceCitation": "臺中市文化資產處「牛罵頭遺址文化園區」。",
        "CultureSourceURL": "https://www.tchac.taichung.gov.tw/attractioninfo?pid=19&uid=69",
        "DisplayColor": "#C56A32",
        "SiteSlug": "niumatou-site",
        "SiteNameZh": "牛罵頭考古遺址",
        "SiteNameEn": "Niumatou Archaeological Site",
        "Longitude": 120.580833,
        "Latitude": 24.268889,
        "LocationNote": "臺中市清水區鰲峰山一帶。圓點只表示遺址定位。",
        "SiteSourceCitation": "臺中市文化資產處「牛罵頭遺址文化園區」。",
        "SiteSourceURL": "https://www.tchac.taichung.gov.tw/attractioninfo?pid=19&uid=69",
        "EvidenceNote": "牛罵頭文化的命名遺址。",
        "IsPrimary": true,
        "DataStatus": "demo"
      },
      "geometry": { "type": "Point", "coordinates": [120.580833, 24.268889] }
    },
    {
      "type": "Feature",
      "id": "demo-peinan",
      "properties": {
        "EntitySiteID": 4,
        "EntityID": 3,
        "SiteID": 4,
        "CultureSlug": "peinan-culture",
        "TitleZh": "卑南文化",
        "TitleEn": "Peinan Culture",
        "StartYear": -1550,
        "EndYear": -350,
        "SummaryZh": "臺灣東部新石器時代晚期的重要文化，卑南遺址呈現大型聚落與石板棺墓葬。",
        "CultureSourceCitation": "國家文化資產網「卑南考古遺址」。",
        "CultureSourceURL": "https://nhsrc.boch.gov.tw/SiteDetail?id=20060501000006",
        "DisplayColor": "#5B6E9C",
        "SiteSlug": "peinan-site",
        "SiteNameZh": "卑南考古遺址",
        "SiteNameEn": "Peinan Archaeological Site",
        "Longitude": 121.113333,
        "Latitude": 22.794444,
        "LocationNote": "臺東市卑南山東南側山麓。座標採研究資料所載中心位置。",
        "SiteSourceCitation": "國立臺灣史前文化博物館「卑南遺址國際學術資料網：研究史」。",
        "SiteSourceURL": "https://peinansite.nmp.gov.tw/ResearchOverview",
        "EvidenceNote": "卑南文化的重要代表性遺址。",
        "IsPrimary": true,
        "DataStatus": "demo"
      },
      "geometry": { "type": "Point", "coordinates": [121.113333, 22.794444] }
    }
  ]
}
