{"type":"FeatureCollection","name":"P118 Taiwan Major Cities","p118_version":"V0.1","generated_on":"2026-09-02","source":"Natural Earth 1:10m Populated Places (simple)","source_version":"5.1.2","source_crs":"WGS 84 geographic coordinates","output_crs":"WGS 84 longitude/latitude (EPSG:4326; RFC 7946)","license":"Public domain (Natural Earth)","processing_note":"Filtered to adm0name=Taiwan; selected Taipei, Taichung, Tainan, Kaohsiung, Hualien and Taitung; population attributes intentionally omitted.","feature_count":6,"features":[{"type":"Feature","id":"TW-HUN","properties":{"CityID":"TW-HUN","NameZh":"花蓮","NameEn":"Hualien","NaturalEarthID":"1159149103","ScaleRank":6},"geometry":{"type":"Point","coordinates":[121.600009,23.983742]}},{"type":"Feature","id":"TW-KHH","properties":{"CityID":"TW-KHH","NameZh":"高雄","NameEn":"Kaohsiung","NaturalEarthID":"1159151213","ScaleRank":3},"geometry":{"type":"Point","coordinates":[120.266602,22.633307]}},{"type":"Feature","id":"TW-TNN","properties":{"CityID":"TW-TNN","NameZh":"臺南","NameEn":"Tainan","NaturalEarthID":"1159149109","ScaleRank":6},"geometry":{"type":"Point","coordinates":[120.200043,23.000003]}},{"type":"Feature","id":"TW-TPE","properties":{"CityID":"TW-TPE","NameZh":"臺北","NameEn":"Taipei","NaturalEarthID":"1159151567","ScaleRank":1},"geometry":{"type":"Point","coordinates":[121.568333,25.035833]}},{"type":"Feature","id":"TW-TTT","properties":{"CityID":"TW-TTT","NameZh":"臺東","NameEn":"Taitung","NaturalEarthID":"1159149111","ScaleRank":6},"geometry":{"type":"Point","coordinates":[121.140037,22.755393]}},{"type":"Feature","id":"TW-TXG","properties":{"CityID":"TW-TXG","NameZh":"臺中","NameEn":"Taichung","NaturalEarthID":"1159150461","ScaleRank":4},"geometry":{"type":"Point","coordinates":[120.681667,24.152078]}}]}
